[{"OBJECT_NAME":"RROCI-2","OBJECT_ID":"2024-043J","EPOCH":"2026-03-09T21:40:56.693280","MEAN_MOTION":14.99383357,"ECCENTRICITY":0.00054118,"INCLINATION":97.8279,"RA_OF_ASC_NODE":200.9973,"ARG_OF_PERICENTER":337.3784,"MEAN_ANOMALY":22.7199,"EPHEMERIS_TYPE":0,"CLASSIFICATION_TYPE":"U","NORAD_CAT_ID":59106,"ELEMENT_SET_NO":999,"REV_AT_EPOCH":10988,"BSTAR":0.00035067832,"MEAN_MOTION_DOT":4.232e-5,"MEAN_MOTION_DDOT":0},{"OBJECT_NAME":"RAX (USA 218)","OBJECT_ID":"2010-062B","EPOCH":"2026-03-09T23:21:07.029792","MEAN_MOTION":14.99597607,"ECCENTRICITY":0.00156448,"INCLINATION":71.9685,"RA_OF_ASC_NODE":266.5192,"ARG_OF_PERICENTER":230.5338,"MEAN_ANOMALY":129.4452,"EPHEMERIS_TYPE":0,"CLASSIFICATION_TYPE":"U","NORAD_CAT_ID":37223,"ELEMENT_SET_NO":999,"REV_AT_EPOCH":9933,"BSTAR":0.00040559866,"MEAN_MOTION_DOT":4.944e-5,"MEAN_MOTION_DDOT":0}]
